[{"OBJECT_NAME":"STARLINK-31916","OBJECT_ID":"2024-093P","EPOCH":"2026-03-09T10:00:19.442016","MEAN_MOTION":15.27560366,"ECCENTRICITY":0.00011981,"INCLINATION":43.0034,"RA_OF_ASC_NODE":210.439,"ARG_OF_PERICENTER":249.4006,"MEAN_ANOMALY":110.6718,"EPHEMERIS_TYPE":0,"CLASSIFICATION_TYPE":"U","NORAD_CAT_ID":59795,"ELEMENT_SET_NO":999,"REV_AT_EPOCH":10265,"BSTAR":1.1522163e-5,"MEAN_MOTION_DOT":5.5e-7,"MEAN_MOTION_DDOT":0},{"OBJECT_NAME":"LIME","OBJECT_ID":"2025-009AR","EPOCH":"2026-03-09T17:44:15.459648","MEAN_MOTION":15.28703313,"ECCENTRICITY":0.00016347,"INCLINATION":97.3985,"RA_OF_ASC_NODE":151.4831,"ARG_OF_PERICENTER":35.9029,"MEAN_ANOMALY":324.232,"EPHEMERIS_TYPE":0,"CLASSIFICATION_TYPE":"U","NORAD_CAT_ID":62648,"ELEMENT_SET_NO":999,"REV_AT_EPOCH":6376,"BSTAR":0.00047722827,"MEAN_MOTION_DOT":0.00013254,"MEAN_MOTION_DDOT":0}]
